start=new Date('2022-10-25T00:00:00.000Z').valueOf();
sats=[{"EPHEMERIS_TYPE":"0","MEAN_MOTION":"15.08881198","REV_AT_EPOCH":"130","OBJECT_ID":"2022-104G","APOAPSIS":"540.552","INCLINATION":"53.2175","ECCENTRICITY":"0.00013480","TLE_LINE1":"1 53594U 22104G   22297.91667824 -.00164427  00000-0 -10541-1 0  9998","LAUNCH_DATE":"2022-08-28","DECAY_DATE":null,"GP_ID":"216073859","CLASSIFICATION_TYPE":"U","MEAN_ELEMENT_THEORY":"SGP4","TIME_SYSTEM":"UTC","MEAN_ANOMALY":"147.5644","REF_FRAME":"TEME","SEMIMAJOR_AXIS":"6917.754","CENTER_NAME":"EARTH","BSTAR":"-0.01054100000000","PERIAPSIS":"538.687","COUNTRY_CODE":"US","OBJECT_NAME":"STARLINK-4681","NORAD_CAT_ID":"53594","RCS_SIZE":"LARGE","MEAN_MOTION_DOT":"-0.00164427","ARG_OF_PERICENTER":"58.0093","MEAN_MOTION_DDOT":"0.0000000000000","OBJECT_TYPE":"PAYLOAD","EPOCH":"2022-10-24T22:00:00.999936","FILE":"3631857","PERIOD":"95.435","RA_OF_ASC_NODE":"13.7334","ELEMENT_SET_NO":"999","SITE":"AFETR","TLE_LINE2":"2 53594  53.2175  13.7334 0001348  58.0093 147.5644 15.08881198  1307"},{"MEAN_MOTION_DDOT":"0.0000000000000","ARG_OF_PERICENTER":"67.0791","OBJECT_TYPE":"PAYLOAD","COUNTRY_CODE":"US","MEAN_MOTION_DOT":"-0.00003470","NORAD_CAT_ID":"53595","OBJECT_NAME":"STARLINK-4684","RCS_SIZE":"LARGE","TLE_LINE2":"2 53595  53.2171  13.7706 0001372  67.0791 118.3334 15.08835282  1304","SITE":"AFETR","FILE":"3631857","PERIOD":"95.438","EPOCH":"2022-10-24T22:00:00.999936","RA_OF_ASC_NODE":"13.7706","ELEMENT_SET_NO":"999","ECCENTRICITY":"0.00013720","TLE_LINE1":"1 53595U 22104H   22297.91667824 -.00003470  00000-0 -20006-3 0  9998","INCLINATION":"53.2171","DECAY_DATE":null,"LAUNCH_DATE":"2022-08-28","EPHEMERIS_TYPE":"0","MEAN_MOTION":"15.08835282","REV_AT_EPOCH":"130","OBJECT_ID":"2022-104H","APOAPSIS":"540.709","CENTER_NAME":"EARTH","BSTAR":"-0.00020006000000","PERIAPSIS":"538.811","GP_ID":"216074605","TIME_SYSTEM":"UTC","MEAN_ANOMALY":"118.3334","SEMIMAJOR_AXIS":"6917.895","REF_FRAME":"TEME","CLASSIFICATION_TYPE":"U","MEAN_ELEMENT_THEORY":"SGP4"},{"OBJECT_ID":"2022-104J","REV_AT_EPOCH":"130","APOAPSIS":"540.534","EPHEMERIS_TYPE":"0","MEAN_MOTION":"15.08833580","LAUNCH_DATE":"2022-08-28","DECAY_DATE":null,"ECCENTRICITY":"0.00011110","TLE_LINE1":"1 53596U 22104J   22297.91667824 -.00018312  00000-0 -11356-2 0  9997","INCLINATION":"53.2183","MEAN_ANOMALY":"172.8987","TIME_SYSTEM":"UTC","SEMIMAJOR_AXIS":"6917.900","REF_FRAME":"TEME","CLASSIFICATION_TYPE":"U","MEAN_ELEMENT_THEORY":"SGP4","GP_ID":"216074114","PERIAPSIS":"538.996","CENTER_NAME":"EARTH","BSTAR":"-0.00113560000000","MEAN_MOTION_DOT":"-0.00018312","OBJECT_NAME":"STARLINK-4668","NORAD_CAT_ID":"53596","RCS_SIZE":"LARGE","COUNTRY_CODE":"US","OBJECT_TYPE":"PAYLOAD","MEAN_MOTION_DDOT":"0.0000000000000","ARG_OF_PERICENTER":"72.6706","RA_OF_ASC_NODE":"13.6532","ELEMENT_SET_NO":"999","FILE":"3631857","PERIOD":"95.438","EPOCH":"2022-10-24T22:00:00.999936","TLE_LINE2":"2 53596  53.2183  13.6532 0001111  72.6706 172.8987 15.08833580  1301","SITE":"AFETR"},{"MEAN_MOTION":"15.08797352","EPHEMERIS_TYPE":"0","APOAPSIS":"540.938","OBJECT_ID":"2022-104K","REV_AT_EPOCH":"130","TLE_LINE1":"1 53597U 22104K   22297.91667824  .00024897  00000-0  15787-2 0  9993","ECCENTRICITY":"0.00015360","INCLINATION":"53.2180","DECAY_DATE":null,"LAUNCH_DATE":"2022-08-28","GP_ID":"216074442","REF_FRAME":"TEME","SEMIMAJOR_AXIS":"6918.011","TIME_SYSTEM":"UTC","MEAN_ANOMALY":"156.0736","MEAN_ELEMENT_THEORY":"SGP4","CLASSIFICATION_TYPE":"U","BSTAR":"0.00157870000000","CENTER_NAME":"EARTH","PERIAPSIS":"538.813","COUNTRY_CODE":"US","MEAN_MOTION_DOT":"0.00024897","RCS_SIZE":"LARGE","NORAD_CAT_ID":"53597","OBJECT_NAME":"STARLINK-4682","MEAN_MOTION_DDOT":"0.0000000000000","ARG_OF_PERICENTER":"69.4736","OBJECT_TYPE":"PAYLOAD","PERIOD":"95.440","FILE":"3631857","EPOCH":"2022-10-24T22:00:00.999936","ELEMENT_SET_NO":"999","RA_OF_ASC_NODE":"13.6924","TLE_LINE2":"2 53597  53.2180  13.6924 0001536  69.4736 156.0736 15.08797352  1304","SITE":"AFETR"},{"TLE_LINE2":"2 53598  53.2194  13.5838 0001560  63.6689 221.9372 15.08813144  1309","SITE":"AFETR","PERIOD":"95.439","FILE":"3631857","EPOCH":"2022-10-24T22:00:00.999936","ELEMENT_SET_NO":"999","RA_OF_ASC_NODE":"13.5838","MEAN_MOTION_DDOT":"0.0000000000000","ARG_OF_PERICENTER":"63.6689","OBJECT_TYPE":"PAYLOAD","COUNTRY_CODE":"US","MEAN_MOTION_DOT":"-0.00019059","RCS_SIZE":"LARGE","NORAD_CAT_ID":"53598","OBJECT_NAME":"STARLINK-4676","BSTAR":"-0.00118340000000","CENTER_NAME":"EARTH","PERIAPSIS":"538.748","GP_ID":"216074277","REF_FRAME":"TEME","SEMIMAJOR_AXIS":"6917.962","TIME_SYSTEM":"UTC","MEAN_ANOMALY":"221.9372","MEAN_ELEMENT_THEORY":"SGP4","CLASSIFICATION_TYPE":"U","TLE_LINE1":"1 53598U 22104L   22297.91667824 -.00019059  00000-0 -11834-2 0  9999","ECCENTRICITY":"0.00015600","INCLINATION":"53.2194","LAUNCH_DATE":"2022-08-28","DECAY_DATE":null,"MEAN_MOTION":"15.08813144","EPHEMERIS_TYPE":"0","APOAPSIS":"540.907","OBJECT_ID":"2022-104L","REV_AT_EPOCH":"130"},{"EPHEMERIS_TYPE":"0","MEAN_MOTION":"15.93064102","OBJECT_ID":"2022-104M","REV_AT_EPOCH":"130","APOAPSIS":"296.744","INCLINATION":"53.2120","ECCENTRICITY":"0.00045380","TLE_LINE1":"1 53599U 22104M   22297.91667824  .00134682  17998-4  38396-3 0  9999","DECAY_DATE":null,"LAUNCH_DATE":"2022-08-28","GP_ID":"216074840","CLASSIFICATION_TYPE":"U","MEAN_ELEMENT_THEORY":"SGP4","MEAN_ANOMALY":"268.2810","TIME_SYSTEM":"UTC","SEMIMAJOR_AXIS":"6671.851","REF_FRAME":"TEME","CENTER_NAME":"EARTH","BSTAR":"0.00038396000000","PERIAPSIS":"290.688","COUNTRY_CODE":"US","NORAD_CAT_ID":"53599","OBJECT_NAME":"STARLINK-4665","RCS_SIZE":"LARGE","MEAN_MOTION_DOT":"0.00134682","ARG_OF_PERICENTER":"354.3045","MEAN_MOTION_DDOT":"0.0000179980000","OBJECT_TYPE":"PAYLOAD","EPOCH":"2022-10-24T22:00:00.999936","FILE":"3631857","PERIOD":"90.392","RA_OF_ASC_NODE":"356.9866","ELEMENT_SET_NO":"999","SITE":"AFETR","TLE_LINE2":"2 53599  53.2120 356.9866 0004538 354.3045 268.2810 15.93064102  1305"},{"RA_OF_ASC_NODE":"13.4984","ELEMENT_SET_NO":"999","FILE":"3631857","PERIOD":"95.440","EPOCH":"2022-10-24T22:00:00.999936","TLE_LINE2":"2 53600  53.2197  13.4984 0001553  54.8851 270.7648 15.08798766  1302","SITE":"AFETR","MEAN_MOTION_DOT":"0.00023664","OBJECT_NAME":"STARLINK-4677","NORAD_CAT_ID":"53600","RCS_SIZE":"LARGE","COUNTRY_CODE":"US","OBJECT_TYPE":"PAYLOAD","MEAN_MOTION_DDOT":"0.0000000000000","ARG_OF_PERICENTER":"54.8851","MEAN_ANOMALY":"270.7648","TIME_SYSTEM":"UTC","SEMIMAJOR_AXIS":"6918.006","REF_FRAME":"TEME","CLASSIFICATION_TYPE":"U","MEAN_ELEMENT_THEORY":"SGP4","GP_ID":"216073697","PERIAPSIS":"538.797","CENTER_NAME":"EARTH","BSTAR":"0.00150160000000","OBJECT_ID":"2022-104N","REV_AT_EPOCH":"130","APOAPSIS":"540.946","EPHEMERIS_TYPE":"0","MEAN_MOTION":"15.08798766","LAUNCH_DATE":"2022-08-28","DECAY_DATE":null,"ECCENTRICITY":"0.00015530","TLE_LINE1":"1 53600U 22104N   22297.91667824  .00023664  00000-0  15016-2 0  9994","INCLINATION":"53.2197"},{"ARG_OF_PERICENTER":"55.3394","MEAN_MOTION_DDOT":"0.0000000000000","OBJECT_TYPE":"PAYLOAD","COUNTRY_CODE":"US","RCS_SIZE":"LARGE","NORAD_CAT_ID":"53601","OBJECT_NAME":"STARLINK-4675","MEAN_MOTION_DOT":"0.00028658","SITE":"AFETR","TLE_LINE2":"2 53601  53.2190  13.6159 0001578  55.3394 210.2380 15.08791374  1307","EPOCH":"2022-10-24T22:00:00.999936","PERIOD":"95.441","FILE":"3631857","ELEMENT_SET_NO":"999","RA_OF_ASC_NODE":"13.6159","INCLINATION":"53.2190","TLE_LINE1":"1 53601U 22104P   22297.91667824  .00028658  00000-0  18138-2 0  9991","ECCENTRICITY":"0.00015780","DECAY_DATE":null,"LAUNCH_DATE":"2022-08-28","MEAN_MOTION":"15.08791374","EPHEMERIS_TYPE":"0","APOAPSIS":"540.986","OBJECT_ID":"2022-104P","REV_AT_EPOCH":"130","BSTAR":"0.00181380000000","CENTER_NAME":"EARTH","PERIAPSIS":"538.802","GP_ID":"216074677","MEAN_ELEMENT_THEORY":"SGP4","CLASSIFICATION_TYPE":"U","REF_FRAME":"TEME","SEMIMAJOR_AXIS":"6918.029","TIME_SYSTEM":"UTC","MEAN_ANOMALY":"210.2380"},{"MEAN_MOTION_DOT":"-0.01083056","NORAD_CAT_ID":"53602","OBJECT_NAME":"STARLINK-4648","RCS_SIZE":"LARGE","COUNTRY_CODE":"US","OBJECT_TYPE":"PAYLOAD","MEAN_MOTION_DDOT":"0.0000000000000","ARG_OF_PERICENTER":"48.1603","RA_OF_ASC_NODE":"8.9827","ELEMENT_SET_NO":"999","FILE":"3631857","PERIOD":"95.326","EPOCH":"2022-10-24T22:00:00.999936","TLE_LINE2":"2 53602  53.2175   8.9827 0001675  48.1603  36.9622 15.10612521  1302","SITE":"AFETR","REV_AT_EPOCH":"130","OBJECT_ID":"2022-104Q","APOAPSIS":"535.491","EPHEMERIS_TYPE":"0","MEAN_MOTION":"15.10612521","LAUNCH_DATE":"2022-08-28","DECAY_DATE":null,"ECCENTRICITY":"0.00016750","TLE_LINE1":"1 53602U 22104Q   22297.91667824 -.01083056  00000-0 -70062-1 0  9991","INCLINATION":"53.2175","TIME_SYSTEM":"UTC","MEAN_ANOMALY":"36.9622","REF_FRAME":"TEME","SEMIMAJOR_AXIS":"6912.468","CLASSIFICATION_TYPE":"U","MEAN_ELEMENT_THEORY":"SGP4","GP_ID":"216073860","PERIAPSIS":"533.175","CENTER_NAME":"EARTH","BSTAR":"-0.07006200000000"},{"ECCENTRICITY":"0.00013160","TLE_LINE1":"1 53603U 22104R   22297.91667824 -.00765752  00000-0 -50858-1 0  9992","INCLINATION":"53.2173","DECAY_DATE":null,"LAUNCH_DATE":"2022-08-28","EPHEMERIS_TYPE":"0","MEAN_MOTION":"15.09603126","OBJECT_ID":"2022-104R","REV_AT_EPOCH":"130","APOAPSIS":"538.324","CENTER_NAME":"EARTH","BSTAR":"-0.05085800000000","PERIAPSIS":"536.504","GP_ID":"216074606","TIME_SYSTEM":"UTC","MEAN_ANOMALY":"331.4362","SEMIMAJOR_AXIS":"6915.549","REF_FRAME":"TEME","CLASSIFICATION_TYPE":"U","MEAN_ELEMENT_THEORY":"SGP4","MEAN_MOTION_DDOT":"0.0000000000000","ARG_OF_PERICENTER":"55.4970","OBJECT_TYPE":"PAYLOAD","COUNTRY_CODE":"US","MEAN_MOTION_DOT":"-0.00765752","NORAD_CAT_ID":"53603","OBJECT_NAME":"STARLINK-4692","RCS_SIZE":"LARGE","TLE_LINE2":"2 53603  53.2173   9.0966 0001316  55.4970 331.4362 15.09603126  1300","SITE":"AFETR","FILE":"3631857","PERIOD":"95.389","EPOCH":"2022-10-24T22:00:00.999936","RA_OF_ASC_NODE":"9.0966","ELEMENT_SET_NO":"999"}];
